ESEO                    
1 43792U 18099AL  26068.65529582  .00002831  00000+0  20935-3 0  9991
2 43792  97.4113 110.2601 0011063 317.6000  42.4371 15.03914518396849
STARLINK-4355           
1 53048U 22077F   26068.51854205  .00000131  00000+0  13313-4 0  9999
2 53048  97.6030 251.0820 0001409  87.0560 273.0828 15.05643548200952
